{
  "norad_id": 52002,
  "name": "STARLINK-3668",
  "history": [
    {
      "epoch": "2026-04-14T14:19:03.388800Z",
      "apogee_km": 540.5581492830052,
      "perigee_km": 538.9296801156843,
      "latitude_deg": 4.233973940718248e-06,
      "longitude_deg": 160.4308671230025,
      "height_km": 540.6187773094612,
      "semi_major_axis_km": 6917.880914699344,
      "eccentricity": 0.0001177,
      "inclination_deg": 53.2168,
      "raan_deg": 217.9657,
      "arg_perigee_deg": 88.5199,
      "mean_anomaly_deg": 271.5928,
      "mean_motion_rev_day": 15.08839828
    },
    {
      "epoch": "2026-04-15T14:09:50.287104Z",
      "apogee_km": 540.5843477614917,
      "perigee_km": 538.8258323022046,
      "latitude_deg": 1.2591797240416286e-06,
      "longitude_deg": 157.29522186895093,
      "height_km": 540.51092191851,
      "semi_major_axis_km": 6917.842090031848,
      "eccentricity": 0.0001271,
      "inclination_deg": 53.2165,
      "raan_deg": 213.5048,
      "arg_perigee_deg": 84.1304,
      "mean_anomaly_deg": 275.9833,
      "mean_motion_rev_day": 15.0885253
    },
    {
      "epoch": "2026-04-16T14:00:38.005344Z",
      "apogee_km": 540.4866896154863,
      "perigee_km": 539.0200968521203,
      "latitude_deg": 3.926790626511977e-05,
      "longitude_deg": 154.15618146844784,
      "height_km": 540.5533413817828,
      "semi_major_axis_km": 6917.8903932338035,
      "eccentricity": 0.000106,
      "inclination_deg": 53.2164,
      "raan_deg": 209.0439,
      "arg_perigee_deg": 82.4721,
      "mean_anomaly_deg": 277.6392,
      "mean_motion_rev_day": 15.08836727
    },
    {
      "epoch": "2026-04-17T15:26:48.155424Z",
      "apogee_km": 540.4919420202523,
      "perigee_km": 539.0033516019512,
      "latitude_deg": -4.6567587944269e-05,
      "longitude_deg": 126.81150150098124,
      "height_km": 540.5586712292487,
      "semi_major_axis_km": 6917.884646811101,
      "eccentricity": 0.00010759,
      "inclination_deg": 53.2163,
      "raan_deg": 204.2862,
      "arg_perigee_deg": 83.4447,
      "mean_anomaly_deg": 276.6667,
      "mean_motion_rev_day": 15.08838607
    },
    {
      "epoch": "2026-04-18T13:42:12.049056Z",
      "apogee_km": 540.5139711272623,
      "perigee_km": 538.9809679288146,
      "latitude_deg": -7.15800772730257e-06,
      "longitude_deg": 147.88572680468783,
      "height_km": 540.6359123145476,
      "semi_major_axis_km": 6917.884469528038,
      "eccentricity": 0.0001108,
      "inclination_deg": 53.2173,
      "raan_deg": 200.124,
      "arg_perigee_deg": 89.432,
      "mean_anomaly_deg": 270.6799,
      "mean_motion_rev_day": 15.08838665
    },
    {
      "epoch": "2026-04-19T11:57:35.430336Z",
      "apogee_km": 540.5047993869639,
      "perigee_km": 538.9428847660392,
      "latitude_deg": -1.9873087982111655e-05,
      "longitude_deg": 168.96155295816177,
      "height_km": 540.5725311957161,
      "semi_major_axis_km": 6917.860842076501,
      "eccentricity": 0.00011289,
      "inclination_deg": 53.2174,
      "raan_deg": 195.9613,
      "arg_perigee_deg": 86.5245,
      "mean_anomaly_deg": 273.5876,
      "mean_motion_rev_day": 15.08846395
    },
    {
      "epoch": "2026-04-20T11:48:23.224608Z",
      "apogee_km": 540.5643652216186,
      "perigee_km": 538.936032932701,
      "latitude_deg": -1.8061686490611466e-05,
      "longitude_deg": 165.82346433267097,
      "height_km": 540.5160522004069,
      "semi_major_axis_km": 6917.8871990771595,
      "eccentricity": 0.00011769,
      "inclination_deg": 53.2172,
      "raan_deg": 191.5017,
      "arg_perigee_deg": 80.8044,
      "mean_anomaly_deg": 279.3081,
      "mean_motion_rev_day": 15.08837772
    },
    {
      "epoch": "2026-04-21T11:39:09.777312Z",
      "apogee_km": 540.5555494128066,
      "perigee_km": 538.9089581730186,
      "latitude_deg": -1.684784802559558e-05,
      "longitude_deg": 162.6880619501202,
      "height_km": 540.5763553160184,
      "semi_major_axis_km": 6917.869253792913,
      "eccentricity": 0.00011901,
      "inclination_deg": 53.2161,
      "raan_deg": 187.0396,
      "arg_perigee_deg": 86.3991,
      "mean_anomaly_deg": 273.7137,
      "mean_motion_rev_day": 15.08843643
    },
    {
      "epoch": "2026-04-22T11:29:57.574176Z",
      "apogee_km": 540.5499855127337,
      "perigee_km": 538.9859855536042,
      "latitude_deg": -2.1381055464161263e-05,
      "longitude_deg": 159.54965698558115,
      "height_km": 540.6043942769057,
      "semi_major_axis_km": 6917.904985533169,
      "eccentricity": 0.00011304,
      "inclination_deg": 53.217,
      "raan_deg": 182.5797,
      "arg_perigee_deg": 85.6308,
      "mean_anomaly_deg": 274.4813,
      "mean_motion_rev_day": 15.08831953
    },
    {
      "epoch": "2026-04-23T04:59:12.385536Z",
      "apogee_km": 540.5499852244393,
      "perigee_km": 538.9780997495645,
      "latitude_deg": -6.619390406023727e-05,
      "longitude_deg": -106.75087592271387,
      "height_km": 540.5933074944263,
      "semi_major_axis_km": 6917.901042487001,
      "eccentricity": 0.00011361,
      "inclination_deg": 53.2168,
      "raan_deg": 179.3091,
      "arg_perigee_deg": 85.1318,
      "mean_anomaly_deg": 274.9803,
      "mean_motion_rev_day": 15.08833243
    },
    {
      "epoch": "2026-04-24T11:11:31.926336Z",
      "apogee_km": 540.5598728330579,
      "perigee_km": 538.9507710789721,
      "latitude_deg": 4.902319079649102e-05,
      "longitude_deg": 153.27809506775097,
      "height_km": 540.6613999069341,
      "semi_major_axis_km": 6917.892321956015,
      "eccentricity": 0.0001163,
      "inclination_deg": 53.2174,
      "raan_deg": 173.6599,
      "arg_perigee_deg": 90.72,
      "mean_anomaly_deg": 269.3926,
      "mean_motion_rev_day": 15.08836096
    },
    {
      "epoch": "2026-04-25T12:37:41.937312Z",
      "apogee_km": 540.5052447841945,
      "perigee_km": 538.9750103635752,
      "latitude_deg": 4.68400187279571e-05,
      "longitude_deg": 125.93315644479749,
      "height_km": 540.5737335861406,
      "semi_major_axis_km": 6917.8771275738845,
      "eccentricity": 0.0001106,
      "inclination_deg": 53.2163,
      "raan_deg": 168.9013,
      "arg_perigee_deg": 85.3272,
      "mean_anomaly_deg": 274.7847,
      "mean_motion_rev_day": 15.08841067
    },
    {
      "epoch": "2026-04-26T20:25:24.843072Z",
      "apogee_km": 540.553034508248,
      "perigee_km": 538.9289934656845,
      "latitude_deg": 2.268902017607647e-05,
      "longitude_deg": 1.751380348322038,
      "height_km": 540.5439289822435,
      "semi_major_axis_km": 6917.878013986966,
      "eccentricity": 0.00011738,
      "inclination_deg": 53.2164,
      "raan_deg": 162.9541,
      "arg_perigee_deg": 83.4271,
      "mean_anomaly_deg": 276.6855,
      "mean_motion_rev_day": 15.08840777
    }
  ]
}